{
  "type": "FeatureCollection",
  "features": [
    {
      "type": "Feature",
      "properties": {
        "norad_id": 15362,
        "name": "NOVA 3",
        "group": "nnss",
        "lat": 35.92881354851081,
        "lon": -99.27126418307112,
        "alt_km": 1192.1856357655342,
        "timestamp": "2025-12-21T16:47:55.006764+00:00",
        "meta_object_name": "NOVA 3",
        "meta_object_id": "1984-110A",
        "meta_epoch": "2025-12-21T12:29:45.710016",
        "meta_mean_motion": 13.23045611,
        "meta_eccentricity": 0.002998,
        "meta_inclination": 90.1221,
        "meta_ra_of_asc_node": 80.6381,
        "meta_arg_of_pericenter": 306.6925,
        "meta_mean_anomaly": 64.0147,
        "meta_ephemeris_type": 0,
        "meta_classification_type": "U",
        "meta_norad_cat_id": 15362,
        "meta_element_set_no": 999,
        "meta_rev_at_epoch": 98815,
        "meta_bstar": 0.00017525,
        "meta_mean_motion_dot": 8.2e-07,
        "meta_mean_motion_ddot": 0,
        "tle_line1": "1 15362U 84110A   25355.52066794  .00000082  00000+0  17525-3 0  9992",
        "tle_line2": "2 15362  90.1221  80.6381 0029980 306.6925  64.0147 13.23045611988158"
      },
      "geometry": {
        "type": "Point",
        "coordinates": [
          -99.27126418307112,
          35.92881354851081
        ]
      }
    },
    {
      "type": "Feature",
      "properties": {
        "norad_id": 15935,
        "name": "OSCAR 30",
        "group": "nnss",
        "lat": -76.68740455753962,
        "lon": 100.69351481842382,
        "alt_km": 1220.8594525751842,
        "timestamp": "2025-12-21T16:47:55.006774+00:00",
        "meta_object_name": "OSCAR 30",
        "meta_object_id": "1985-066A",
        "meta_epoch": "2025-12-21T06:41:53.387232",
        "meta_mean_motion": 13.36079593,
        "meta_eccentricity": 0.016913,
        "meta_inclination": 90.1655,
        "meta_ra_of_asc_node": 99.9868,
        "meta_arg_of_pericenter": 60.0583,
        "meta_mean_anomaly": 1.5893,
        "meta_ephemeris_type": 0,
        "meta_classification_type": "U",
        "meta_norad_cat_id": 15935,
        "meta_element_set_no": 999,
        "meta_rev_at_epoch": 96567,
        "meta_bstar": 0.00014528,
        "meta_mean_motion_dot": 9.1e-07,
        "meta_mean_motion_ddot": 0,
        "tle_line1": "1 15935U 85066A   25355.27909013  .00000091  00000+0  14528-3 0  9991",
        "tle_line2": "2 15935  90.1655  99.9868 0169130  60.0583   1.5893 13.36079593965677"
      },
      "geometry": {
        "type": "Point",
        "coordinates": [
          100.69351481842382,
          -76.68740455753962
        ]
      }
    },
    {
      "type": "Feature",
      "properties": {
        "norad_id": 15936,
        "name": "OSCAR 24",
        "group": "nnss",
        "lat": -6.502275755420981,
        "lon": 92.48432147706681,
        "alt_km": 1086.1222108523152,
        "timestamp": "2025-12-21T16:47:55.006784+00:00",
        "meta_object_name": "OSCAR 24",
        "meta_object_id": "1985-066B",
        "meta_epoch": "2025-12-21T06:11:02.071104",
        "meta_mean_motion": 13.35936911,
        "meta_eccentricity": 0.0170261,
        "meta_inclination": 90.1791,
        "meta_ra_of_asc_node": 92.4561,
        "meta_arg_of_pericenter": 66.5575,
        "meta_mean_anomaly": 323.0621,
        "meta_ephemeris_type": 0,
        "meta_classification_type": "U",
        "meta_norad_cat_id": 15936,
        "meta_element_set_no": 999,
        "meta_rev_at_epoch": 96757,
        "meta_bstar": 0.00012482,
        "meta_mean_motion_dot": 7.9e-07,
        "meta_mean_motion_ddot": 0,
        "tle_line1": "1 15936U 85066B   25355.25766286  .00000079  00000+0  12482-3 0  9996",
        "tle_line2": "2 15936  90.1791  92.4561 0170261  66.5575 323.0621 13.35936911967573"
      },
      "geometry": {
        "type": "Point",
        "coordinates": [
          92.48432147706681,
          -6.502275755420981
        ]
      }
    },
    {
      "type": "Feature",
      "properties": {
        "norad_id": 17070,
        "name": "POLAR BEAR",
        "group": "nnss",
        "lat": 17.357855974515868,
        "lon": -176.4653143549186,
        "alt_km": 973.7725474541339,
        "timestamp": "2025-12-21T16:47:55.006809+00:00",
        "meta_object_name": "POLAR BEAR",
        "meta_object_id": "1986-088A",
        "meta_epoch": "2025-12-21T11:36:57.542976",
        "meta_mean_motion": 13.75252543,
        "meta_eccentricity": 0.0041288,
        "meta_inclination": 89.617,
        "meta_ra_of_asc_node": 183.4236,
        "meta_arg_of_pericenter": 94.0716,
        "meta_mean_anomaly": 295.3913,
        "meta_ephemeris_type": 0,
        "meta_classification_type": "U",
        "meta_norad_cat_id": 17070,
        "meta_element_set_no": 999,
        "meta_rev_at_epoch": 96099,
        "meta_bstar": 9.0153e-05,
        "meta_mean_motion_dot": 9.9e-07,
        "meta_mean_motion_ddot": 0,
        "tle_line1": "1 17070U 86088A   25355.48399934  .00000099  00000+0  90153-4 0  9993",
        "tle_line2": "2 17070  89.6170 183.4236 0041288  94.0716 295.3913 13.75252543960997"
      },
      "geometry": {
        "type": "Point",
        "coordinates": [
          -176.4653143549186,
          17.357855974515868
        ]
      }
    },
    {
      "type": "Feature",
      "properties": {
        "norad_id": 18361,
        "name": "OSCAR 27",
        "group": "nnss",
        "lat": 17.828161014924266,
        "lon": 79.48715839250015,
        "alt_km": 1168.8495558231416,
        "timestamp": "2025-12-21T16:47:55.006822+00:00",
        "meta_object_name": "OSCAR 27",
        "meta_object_id": "1987-080A",
        "meta_epoch": "2025-12-21T11:21:05.959296",
        "meta_mean_motion": 13.44908381,
        "meta_eccentricity": 0.0103631,
        "meta_inclination": 90.3739,
        "meta_ra_of_asc_node": 79.599,
        "meta_arg_of_pericenter": 198.6192,
        "meta_mean_anomaly": 161.1154,
        "meta_ephemeris_type": 0,
        "meta_classification_type": "U",
        "meta_norad_cat_id": 18361,
        "meta_element_set_no": 999,
        "meta_rev_at_epoch": 87674,
        "meta_bstar": 0.00016373,
        "meta_mean_motion_dot": 1.07e-06,
        "meta_mean_motion_ddot": 0,
        "tle_line1": "1 18361U 87080A   25355.47298564  .00000107  00000+0  16373-3 0  9997",
        "tle_line2": "2 18361  90.3739  79.5990 0103631 198.6192 161.1154 13.44908381876743"
      },
      "geometry": {
        "type": "Point",
        "coordinates": [
          79.48715839250015,
          17.828161014924266
        ]
      }
    },
    {
      "type": "Feature",
      "properties": {
        "norad_id": 18362,
        "name": "OSCAR 29",
        "group": "nnss",
        "lat": 15.770031800310049,
        "lon": 79.96110138707905,
        "alt_km": 1163.8515243319134,
        "timestamp": "2025-12-21T16:47:55.006833+00:00",
        "meta_object_name": "OSCAR 29",
        "meta_object_id": "1987-080B",
        "meta_epoch": "2025-12-21T11:25:06.788064",
        "meta_mean_motion": 13.44449927,
        "meta_eccentricity": 0.0104471,
        "meta_inclination": 90.3751,
        "meta_ra_of_asc_node": 80.0587,
        "meta_arg_of_pericenter": 221.8489,
        "meta_mean_anomaly": 149.171,
        "meta_ephemeris_type": 0,
        "meta_classification_type": "U",
        "meta_norad_cat_id": 18362,
        "meta_element_set_no": 999,
        "meta_rev_at_epoch": 87627,
        "meta_bstar": 0.00015543,
        "meta_mean_motion_dot": 1.01e-06,
        "meta_mean_motion_ddot": 0,
        "tle_line1": "1 18362U 87080B   25355.47577301  .00000101  00000+0  15543-3 0  9999",
        "tle_line2": "2 18362  90.3751  80.0587 0104471 221.8489 149.1710 13.44449927876276"
      },
      "geometry": {
        "type": "Point",
        "coordinates": [
          79.96110138707905,
          15.770031800310049
        ]
      }
    },
    {
      "type": "Feature",
      "properties": {
        "norad_id": 19070,
        "name": "OSCAR 23",
        "group": "nnss",
        "lat": -26.059268852826957,
        "lon": 16.826807535594572,
        "alt_km": 1304.0832973748938,
        "timestamp": "2025-12-21T16:47:55.006844+00:00",
        "meta_object_name": "OSCAR 23",
        "meta_object_id": "1988-033A",
        "meta_epoch": "2025-12-21T12:06:05.435712",
        "meta_mean_motion": 13.27788556,
        "meta_eccentricity": 0.0190243,
        "meta_inclination": 90.3203,
        "meta_ra_of_asc_node": 16.664,
        "meta_arg_of_pericenter": 155.5953,
        "meta_mean_anomaly": 323.4425,
        "meta_ephemeris_type": 0,
        "meta_classification_type": "U",
        "meta_norad_cat_id": 19070,
        "meta_element_set_no": 999,
        "meta_rev_at_epoch": 82369,
        "meta_bstar": 0.00011932,
        "meta_mean_motion_dot": 6.9e-07,
        "meta_mean_motion_ddot": 0,
        "tle_line1": "1 19070U 88033A   25355.50422958  .00000069  00000+0  11932-3 0  9997",
        "tle_line2": "2 19070  90.3203  16.6640 0190243 155.5953 323.4425 13.27788556823694"
      },
      "geometry": {
        "type": "Point",
        "coordinates": [
          16.826807535594572,
          -26.059268852826957
        ]
      }
    }
  ]
}